STARLINK-35602          
1 66403U 25257Z   25340.18068037  .00125660  00000+0  22222-2 0  9998
2 66403  53.1591 295.1307 0001472 117.2823 242.8336 15.49424028  5361
STARLINK-35691          
1 66404U 25257AA  25340.30934940  .00116952  00000+0  20746-2 0  9991
2 66404  53.1594 294.5115 0000455 127.6305 232.4745 15.49375939  5382
STARLINK-35683          
1 66405U 25257AB  25340.18000338  .00098521  00000+0  17588-2 0  9994
2 66405  53.1588 295.1251 0000873  49.0539 311.0545 15.49283742  5296
STARLINK-34840          
1 66406U 25257AC  25340.30797984  .00111393  00000+0  19793-2 0  9992
2 66406  53.1586 294.5011 0001339  72.2578 287.8577 15.49353846  5323
STARLINK-35686          
1 66407U 25257AD  25340.17964991  .00107639  00000+0  19144-2 0  9990
2 66407  53.1589 295.1224 0001858  99.0415 261.0804 15.49345649  5366
STARLINK-35679          
1 66408U 25257AE  25340.17930619  .00105806  00000+0  18816-2 0  9990
2 66408  53.1593 295.1224 0001602 102.3098 257.8091 15.49356651  5360
CHUTIAN-2 A             
1 66409U 25256A   25340.30784149  .00001390  00000+0  37053-3 0  9998
2 66409  98.2779  45.1828 0013359 197.3265 162.7475 14.49928735  3941
CHUTIAN-2 B             
1 66410U 25256B   25340.29405667  .00001353  00000+0  35273-3 0  9994
2 66410  98.2803  45.2085 0013435 201.0767 158.9876 14.51013421  3944
ZK-1A R/B               
1 66411U 25256C   25340.05162526  .00021074  00000+0  91584-3 0  9992
2 66411  98.3238  47.3485 0229058 267.3277  90.1709 15.01738444  4045
HULIANWANG DIGUI 13A    
1 66412U 25258A   25339.89924102  .00000588  00000+0  33228-3 0  9999
2 66412  50.0056 290.7730 0013174 333.7456  26.2788 14.22483467  3683
HULIANWANG DIGUI 13B    
1 66413U 25258B   25339.41544095  .00000619  00000+0  34741-3 0  9993
2 66413  50.0013 292.8683 0013187 332.0634  27.9569 14.22286108  3612
HULIANWANG DIGUI 13C    
1 66414U 25258C   25339.41221397  .00000638  00000+0  35500-3 0  9996
2 66414  50.0052 292.8676 0013740 331.0235  28.9914 14.22441770  3612
