CCSDS_OMM_VERS = 2.0
CREATION_DATE  = 
ORIGINATOR     = 

OBJECT_NAME    = STARLINK-35602
OBJECT_ID      = 2025-257Z
CENTER_NAME    = EARTH
REF_FRAME      = TEME
TIME_SYSTEM    = UTC
MEAN_ELEMENT_THEORY = SGP/SGP4

EPOCH          = 2025-12-06T04:20:10.783968
MEAN_MOTION    = 15.49424028
ECCENTRICITY   = .00014724
INCLINATION    = 53.1591
RA_OF_ASC_NODE = 295.1307
ARG_OF_PERICENTER = 117.2823
MEAN_ANOMALY   = 242.8336

EPHEMERIS_TYPE = 0
CLASSIFICATION_TYPE = U
NORAD_CAT_ID   = 66403
ELEMENT_SET_NO = 999
REV_AT_EPOCH   = 536
BSTAR          = .22222457E-2
MEAN_MOTION_DOT = .12566E-2
MEAN_MOTION_DDOT = 0

CCSDS_OMM_VERS = 2.0
CREATION_DATE  = 
ORIGINATOR     = 

OBJECT_NAME    = STARLINK-35691
OBJECT_ID      = 2025-257AA
CENTER_NAME    = EARTH
REF_FRAME      = TEME
TIME_SYSTEM    = UTC
MEAN_ELEMENT_THEORY = SGP/SGP4

EPOCH          = 2025-12-06T07:25:27.788160
MEAN_MOTION    = 15.49375939
ECCENTRICITY   = .0000455
INCLINATION    = 53.1594
RA_OF_ASC_NODE = 294.5115
ARG_OF_PERICENTER = 127.6305
MEAN_ANOMALY   = 232.4745

EPHEMERIS_TYPE = 0
CLASSIFICATION_TYPE = U
NORAD_CAT_ID   = 66404
ELEMENT_SET_NO = 999
REV_AT_EPOCH   = 538
BSTAR          = .20746218E-2
MEAN_MOTION_DOT = .116952E-2
MEAN_MOTION_DDOT = 0

CCSDS_OMM_VERS = 2.0
CREATION_DATE  = 
ORIGINATOR     = 

OBJECT_NAME    = STARLINK-35683
OBJECT_ID      = 2025-257AB
CENTER_NAME    = EARTH
REF_FRAME      = TEME
TIME_SYSTEM    = UTC
MEAN_ELEMENT_THEORY = SGP/SGP4

EPOCH          = 2025-12-06T04:19:12.292032
MEAN_MOTION    = 15.49283742
ECCENTRICITY   = .00008737
INCLINATION    = 53.1588
RA_OF_ASC_NODE = 295.1251
ARG_OF_PERICENTER = 49.0539
MEAN_ANOMALY   = 311.0545

EPHEMERIS_TYPE = 0
CLASSIFICATION_TYPE = U
NORAD_CAT_ID   = 66405
ELEMENT_SET_NO = 999
REV_AT_EPOCH   = 529
BSTAR          = .17587566E-2
MEAN_MOTION_DOT = .98521E-3
MEAN_MOTION_DDOT = 0

CCSDS_OMM_VERS = 2.0
CREATION_DATE  = 
ORIGINATOR     = 

OBJECT_NAME    = STARLINK-34840
OBJECT_ID      = 2025-257AC
CENTER_NAME    = EARTH
REF_FRAME      = TEME
TIME_SYSTEM    = UTC
MEAN_ELEMENT_THEORY = SGP/SGP4

EPOCH          = 2025-12-06T07:23:29.458176
MEAN_MOTION    = 15.49353846
ECCENTRICITY   = .00013399
INCLINATION    = 53.1586
RA_OF_ASC_NODE = 294.5011
ARG_OF_PERICENTER = 72.2578
MEAN_ANOMALY   = 287.8577

EPHEMERIS_TYPE = 0
CLASSIFICATION_TYPE = U
NORAD_CAT_ID   = 66406
ELEMENT_SET_NO = 999
REV_AT_EPOCH   = 532
BSTAR          = .19793397E-2
MEAN_MOTION_DOT = .111393E-2
MEAN_MOTION_DDOT = 0

CCSDS_OMM_VERS = 2.0
CREATION_DATE  = 
ORIGINATOR     = 

OBJECT_NAME    = STARLINK-35686
OBJECT_ID      = 2025-257AD
CENTER_NAME    = EARTH
REF_FRAME      = TEME
TIME_SYSTEM    = UTC
MEAN_ELEMENT_THEORY = SGP/SGP4

EPOCH          = 2025-12-06T04:18:41.752224
MEAN_MOTION    = 15.49345649
ECCENTRICITY   = .0001858
INCLINATION    = 53.1589
RA_OF_ASC_NODE = 295.1224
ARG_OF_PERICENTER = 99.0415
MEAN_ANOMALY   = 261.0804

EPHEMERIS_TYPE = 0
CLASSIFICATION_TYPE = U
NORAD_CAT_ID   = 66407
ELEMENT_SET_NO = 999
REV_AT_EPOCH   = 536
BSTAR          = .19143547E-2
MEAN_MOTION_DOT = .107639E-2
MEAN_MOTION_DDOT = 0

CCSDS_OMM_VERS = 2.0
CREATION_DATE  = 
ORIGINATOR     = 

OBJECT_NAME    = STARLINK-35679
OBJECT_ID      = 2025-257AE
CENTER_NAME    = EARTH
REF_FRAME      = TEME
TIME_SYSTEM    = UTC
MEAN_ELEMENT_THEORY = SGP/SGP4

EPOCH          = 2025-12-06T04:18:12.054816
MEAN_MOTION    = 15.49356651
ECCENTRICITY   = .00016029
INCLINATION    = 53.1593
RA_OF_ASC_NODE = 295.1224
ARG_OF_PERICENTER = 102.3098
MEAN_ANOMALY   = 257.8091

EPHEMERIS_TYPE = 0
CLASSIFICATION_TYPE = U
NORAD_CAT_ID   = 66408
ELEMENT_SET_NO = 999
REV_AT_EPOCH   = 536
BSTAR          = .18816254E-2
MEAN_MOTION_DOT = .105806E-2
MEAN_MOTION_DDOT = 0

CCSDS_OMM_VERS = 2.0
CREATION_DATE  = 
ORIGINATOR     = 

OBJECT_NAME    = CHUTIAN-2 A
OBJECT_ID      = 2025-256A
CENTER_NAME    = EARTH
REF_FRAME      = TEME
TIME_SYSTEM    = UTC
MEAN_ELEMENT_THEORY = SGP/SGP4

EPOCH          = 2025-12-06T07:23:17.504736
MEAN_MOTION    = 14.49928735
ECCENTRICITY   = .00133594
INCLINATION    = 98.2779
RA_OF_ASC_NODE = 45.1828
ARG_OF_PERICENTER = 197.3265
MEAN_ANOMALY   = 162.7475

EPHEMERIS_TYPE = 0
CLASSIFICATION_TYPE = U
NORAD_CAT_ID   = 66409
ELEMENT_SET_NO = 999
REV_AT_EPOCH   = 394
BSTAR          = .3705294E-3
MEAN_MOTION_DOT = .139E-4
MEAN_MOTION_DDOT = 0

CCSDS_OMM_VERS = 2.0
CREATION_DATE  = 
ORIGINATOR     = 

OBJECT_NAME    = CHUTIAN-2 B
OBJECT_ID      = 2025-256B
CENTER_NAME    = EARTH
REF_FRAME      = TEME
TIME_SYSTEM    = UTC
MEAN_ELEMENT_THEORY = SGP/SGP4

EPOCH          = 2025-12-06T07:03:26.496288
MEAN_MOTION    = 14.51013421
ECCENTRICITY   = .00134353
INCLINATION    = 98.2803
RA_OF_ASC_NODE = 45.2085
ARG_OF_PERICENTER = 201.0767
MEAN_ANOMALY   = 158.9876

EPHEMERIS_TYPE = 0
CLASSIFICATION_TYPE = U
NORAD_CAT_ID   = 66410
ELEMENT_SET_NO = 999
REV_AT_EPOCH   = 394
BSTAR          = .35272683E-3
MEAN_MOTION_DOT = .1353E-4
MEAN_MOTION_DDOT = 0

CCSDS_OMM_VERS = 2.0
CREATION_DATE  = 
ORIGINATOR     = 

OBJECT_NAME    = ZK-1A R/B
OBJECT_ID      = 2025-256C
CENTER_NAME    = EARTH
REF_FRAME      = TEME
TIME_SYSTEM    = UTC
MEAN_ELEMENT_THEORY = SGP/SGP4

EPOCH          = 2025-12-06T01:14:20.422464
MEAN_MOTION    = 15.01738444
ECCENTRICITY   = .02290588
INCLINATION    = 98.3238
RA_OF_ASC_NODE = 47.3485
ARG_OF_PERICENTER = 267.3277
MEAN_ANOMALY   = 90.1709

EPHEMERIS_TYPE = 0
CLASSIFICATION_TYPE = U
NORAD_CAT_ID   = 66411
ELEMENT_SET_NO = 999
REV_AT_EPOCH   = 404
BSTAR          = .91584319E-3
MEAN_MOTION_DOT = .21074E-3
MEAN_MOTION_DDOT = 0

CCSDS_OMM_VERS = 2.0
CREATION_DATE  = 
ORIGINATOR     = 

OBJECT_NAME    = HULIANWANG DIGUI 13A
OBJECT_ID      = 2025-258A
CENTER_NAME    = EARTH
REF_FRAME      = TEME
TIME_SYSTEM    = UTC
MEAN_ELEMENT_THEORY = SGP/SGP4

EPOCH          = 2025-12-05T21:34:54.424128
MEAN_MOTION    = 14.22483467
ECCENTRICITY   = .0013174
INCLINATION    = 50.0056
RA_OF_ASC_NODE = 290.7730
ARG_OF_PERICENTER = 333.7456
MEAN_ANOMALY   = 26.2788

EPHEMERIS_TYPE = 0
CLASSIFICATION_TYPE = U
NORAD_CAT_ID   = 66412
ELEMENT_SET_NO = 999
REV_AT_EPOCH   = 368
BSTAR          = .33228063E-3
MEAN_MOTION_DOT = .588E-5
MEAN_MOTION_DDOT = 0

CCSDS_OMM_VERS = 2.0
CREATION_DATE  = 
ORIGINATOR     = 

OBJECT_NAME    = HULIANWANG DIGUI 13B
OBJECT_ID      = 2025-258B
CENTER_NAME    = EARTH
REF_FRAME      = TEME
TIME_SYSTEM    = UTC
MEAN_ELEMENT_THEORY = SGP/SGP4

EPOCH          = 2025-12-05T09:58:14.098080
MEAN_MOTION    = 14.22286108
ECCENTRICITY   = .00131872
INCLINATION    = 50.0013
RA_OF_ASC_NODE = 292.8683
ARG_OF_PERICENTER = 332.0634
MEAN_ANOMALY   = 27.9569

EPHEMERIS_TYPE = 0
CLASSIFICATION_TYPE = U
NORAD_CAT_ID   = 66413
ELEMENT_SET_NO = 999
REV_AT_EPOCH   = 361
BSTAR          = .3474057E-3
MEAN_MOTION_DOT = .619E-5
MEAN_MOTION_DDOT = 0

CCSDS_OMM_VERS = 2.0
CREATION_DATE  = 
ORIGINATOR     = 

OBJECT_NAME    = HULIANWANG DIGUI 13C
OBJECT_ID      = 2025-258C
CENTER_NAME    = EARTH
REF_FRAME      = TEME
TIME_SYSTEM    = UTC
MEAN_ELEMENT_THEORY = SGP/SGP4

EPOCH          = 2025-12-05T09:53:35.287008
MEAN_MOTION    = 14.22441770
ECCENTRICITY   = .00137409
INCLINATION    = 50.0052
RA_OF_ASC_NODE = 292.8676
ARG_OF_PERICENTER = 331.0235
MEAN_ANOMALY   = 28.9914

EPHEMERIS_TYPE = 0
CLASSIFICATION_TYPE = U
NORAD_CAT_ID   = 66414
ELEMENT_SET_NO = 999
REV_AT_EPOCH   = 361
BSTAR          = .35499636E-3
MEAN_MOTION_DOT = .638E-5
MEAN_MOTION_DDOT = 0

